OPS 6582 (TRANSIT 5B-5) 
1 00965U 64083D   26061.68271493  .00000072  00000+0  87593-4 0  9990
2 00965  90.0738 202.1749 0040204 227.4372 143.9865 13.57000696 29173
LES-1                   
1 01002U 65008C   26061.29824895  .00000024  00000+0  20432-2 0  9992
2 01002  32.1448 297.9356 0015801 245.3854 114.4997  9.88354895205612
SOLRAD 7B               
1 01291U 65016D   26061.55781340  .00000040  00000+0  68325-4 0  9990
2 01291  70.0776 102.9609 0023923 261.9080  97.9311 13.94961304101837
SECOR 4 (EGRS 4)        
1 01315U 65027B   26061.81930564 -.00000053  00000+0 -22306-3 0  9996
2 01315  90.2526  13.1341 0032665 116.6179 271.5793 12.92664900873182
TIROS 10                
1 01430U 65051A   26061.78083867  .00000225  00000+0  81525-4 0  9990
2 01430  98.4882 181.6676 0055975  39.5750 320.9505 14.41584777180588
ALOUETTE 2              
1 01804U 65098A   26061.55150953  .00000817  00000+0  26079-3 0  9991
2 01804  79.8046   7.3778 1330858  88.7434 286.5319 12.28227237666180
OV3-3                   
1 02389U 66070A   26061.76444715  .00014646  00000+0  65679-3 0  9990
2 02389  81.3220  64.7284 1025681  73.3635 297.7459 13.42347411584674
SECOR 7 (EGRS 7)        
1 02411U 66077B   26060.57496611  .00000030  00000+0  13883-1 0  9993
2 02411  90.3273 276.1964 0011524 162.5662 197.5587  8.59615494868139
ERS 15                  
1 02412U 66077C   26060.97318318  .00000002  00000+0  00000+0 0  9999
2 02412  90.3281 275.9940 0007034 169.2018 190.8985  8.59079415381258
ISIS 1                  
1 03669U 69009A   26061.72786427  .00000194  00000+0  12134-3 0  9993
2 03669  88.4549 156.0675 1707832 103.2065 276.4365 11.30411589347740
SECOR 13 (EGRS 13)      
1 03891U 69037B   26061.63391953  .00000000  00000+0  73863-4 0  9990
2 03891  99.6667 297.6589 0039831 151.9908 264.7161 13.42972105787451
ATS 5                   
1 04068U 69069A   26061.73239175 -.00000006  00000+0  00000+0 0  9995
2 04068   0.2916 214.6020 0006224  66.7611 223.0466  0.99486965 45260
OPS 7613 (P/L 4)        
1 04237U 69082E   26061.76554618  .00000059  00000+0  81575-4 0  9991
2 04237  70.0168 331.2329 0023306 268.7563 160.9011 13.95977705871450
OPS 7613 (P/L 1)        
1 04256U 69082B   26061.78939877  .00000166  00000+0  15078-3 0  9991
2 04256  70.0094 193.5771 0020974 211.1610 148.8255 13.99165102875589
SHINSEI (MS-F2)         
1 05485U 71080A   26061.51567507 -.00000006  00000+0 -37589-4 0  9992
2 05485  32.0512 204.6974 0639778  53.7315 312.0683 12.74248373535640
PROSPERO (BLACK ARROW)  
1 05580U 71093A   26061.63964177  .00000602  00000+0  12456-3 0  9994
2 05580  82.0398  24.3255 0502170 172.4734 188.4358 14.01375819733609
OPS 7898 (P/L 2)        
1 05680U 71110C   26061.79706189  .00000000  00000+0  52774-4 0  9999
2 05680  69.9880 222.4752 0010179 294.0060  65.9968 13.74748940333597
