[{"OBJECT_NAME":"OPS 6582 (TRANSIT 5B-5)","OBJECT_ID":"1964-083D","EPOCH":"2026-03-02T16:23:06.569952","MEAN_MOTION":13.57000696,"ECCENTRICITY":0.0040204,"INCLINATION":90.0738,"RA_OF_ASC_NODE":202.1749,"ARG_OF_PERICENTER":227.4372,"MEAN_ANOMALY":143.9865,"EPHEMERIS_TYPE":0,"CLASSIFICATION_TYPE":"U","NORAD_CAT_ID":965,"ELEMENT_SET_NO":999,"REV_AT_EPOCH":2917,"BSTAR":8.7593e-5,"MEAN_MOTION_DOT":7.2e-7,"MEAN_MOTION_DDOT":0},{"OBJECT_NAME":"LES-1","OBJECT_ID":"1965-008C","EPOCH":"2026-03-02T07:09:28.709280","MEAN_MOTION":9.88354895,"ECCENTRICITY":0.00158018,"INCLINATION":32.1448,"RA_OF_ASC_NODE":297.9356,"ARG_OF_PERICENTER":245.3854,"MEAN_ANOMALY":114.4997,"EPHEMERIS_TYPE":0,"CLASSIFICATION_TYPE":"U","NORAD_CAT_ID":1002,"ELEMENT_SET_NO":999,"REV_AT_EPOCH":20561,"BSTAR":0.0020431674,"MEAN_MOTION_DOT":2.4e-7,"MEAN_MOTION_DDOT":0},{"OBJECT_NAME":"SOLRAD 7B","OBJECT_ID":"1965-016D","EPOCH":"2026-03-02T13:23:15.077760","MEAN_MOTION":13.94961304,"ECCENTRICITY":0.0023923,"INCLINATION":70.0776,"RA_OF_ASC_NODE":102.9609,"ARG_OF_PERICENTER":261.908,"MEAN_ANOMALY":97.9311,"EPHEMERIS_TYPE":0,"CLASSIFICATION_TYPE":"U","NORAD_CAT_ID":1291,"ELEMENT_SET_NO":999,"REV_AT_EPOCH":10183,"BSTAR":6.8325e-5,"MEAN_MOTION_DOT":4.0e-7,"MEAN_MOTION_DDOT":0},{"OBJECT_NAME":"SECOR 4 (EGRS 4)","OBJECT_ID":"1965-027B","EPOCH":"2026-03-02T19:39:48.007296","MEAN_MOTION":12.926649,"ECCENTRICITY":0.0032665,"INCLINATION":90.2526,"RA_OF_ASC_NODE":13.1341,"ARG_OF_PERICENTER":116.6179,"MEAN_ANOMALY":271.5793,"EPHEMERIS_TYPE":0,"CLASSIFICATION_TYPE":"U","NORAD_CAT_ID":1315,"ELEMENT_SET_NO":999,"REV_AT_EPOCH":87318,"BSTAR":-0.00022306,"MEAN_MOTION_DOT":-5.3e-7,"MEAN_MOTION_DDOT":0},{"OBJECT_NAME":"TIROS 10","OBJECT_ID":"1965-051A","EPOCH":"2026-03-02T18:44:24.461088","MEAN_MOTION":14.41584777,"ECCENTRICITY":0.0055975,"INCLINATION":98.4882,"RA_OF_ASC_NODE":181.6676,"ARG_OF_PERICENTER":39.575,"MEAN_ANOMALY":320.9505,"EPHEMERIS_TYPE":0,"CLASSIFICATION_TYPE":"U","NORAD_CAT_ID":1430,"ELEMENT_SET_NO":999,"REV_AT_EPOCH":18058,"BSTAR":8.1525e-5,"MEAN_MOTION_DOT":2.25e-6,"MEAN_MOTION_DDOT":0},{"OBJECT_NAME":"ALOUETTE 2","OBJECT_ID":"1965-098A","EPOCH":"2026-03-02T13:14:10.423392","MEAN_MOTION":12.28227237,"ECCENTRICITY":0.1330858,"INCLINATION":79.8046,"RA_OF_ASC_NODE":7.3778,"ARG_OF_PERICENTER":88.7434,"MEAN_ANOMALY":286.5319,"EPHEMERIS_TYPE":0,"CLASSIFICATION_TYPE":"U","NORAD_CAT_ID":1804,"ELEMENT_SET_NO":999,"REV_AT_EPOCH":66618,"BSTAR":0.00026079,"MEAN_MOTION_DOT":8.17e-6,"MEAN_MOTION_DDOT":0},{"OBJECT_NAME":"OV3-3","OBJECT_ID":"1966-070A","EPOCH":"2026-03-02T18:20:48.233760","MEAN_MOTION":13.42347411,"ECCENTRICITY":0.1025681,"INCLINATION":81.322,"RA_OF_ASC_NODE":64.7284,"ARG_OF_PERICENTER":73.3635,"MEAN_ANOMALY":297.7459,"EPHEMERIS_TYPE":0,"CLASSIFICATION_TYPE":"U","NORAD_CAT_ID":2389,"ELEMENT_SET_NO":999,"REV_AT_EPOCH":58467,"BSTAR":0.00065679,"MEAN_MOTION_DOT":0.00014646,"MEAN_MOTION_DDOT":0},{"OBJECT_NAME":"SECOR 7 (EGRS 7)","OBJECT_ID":"1966-077B","EPOCH":"2026-03-01T13:47:57.071904","MEAN_MOTION":8.59615494,"ECCENTRICITY":0.00115248,"INCLINATION":90.3273,"RA_OF_ASC_NODE":276.1964,"ARG_OF_PERICENTER":162.5662,"MEAN_ANOMALY":197.5587,"EPHEMERIS_TYPE":0,"CLASSIFICATION_TYPE":"U","NORAD_CAT_ID":2411,"ELEMENT_SET_NO":999,"REV_AT_EPOCH":86813,"BSTAR":0.013883428,"MEAN_MOTION_DOT":3.0e-7,"MEAN_MOTION_DDOT":0},{"OBJECT_NAME":"ERS 15","OBJECT_ID":"1966-077C","EPOCH":"2026-03-01T23:21:23.026752","MEAN_MOTION":8.59079415,"ECCENTRICITY":0.00070349,"INCLINATION":90.3281,"RA_OF_ASC_NODE":275.994,"ARG_OF_PERICENTER":169.2018,"MEAN_ANOMALY":190.8985,"EPHEMERIS_TYPE":0,"CLASSIFICATION_TYPE":"U","NORAD_CAT_ID":2412,"ELEMENT_SET_NO":999,"REV_AT_EPOCH":38125,"BSTAR":0,"MEAN_MOTION_DOT":2.0e-8,"MEAN_MOTION_DDOT":0},{"OBJECT_NAME":"ISIS 1","OBJECT_ID":"1969-009A","EPOCH":"2026-03-02T17:28:07.472928","MEAN_MOTION":11.30411589,"ECCENTRICITY":0.1707832,"INCLINATION":88.4549,"RA_OF_ASC_NODE":156.0675,"ARG_OF_PERICENTER":103.2065,"MEAN_ANOMALY":276.4365,"EPHEMERIS_TYPE":0,"CLASSIFICATION_TYPE":"U","NORAD_CAT_ID":3669,"ELEMENT_SET_NO":999,"REV_AT_EPOCH":34774,"BSTAR":0.00012134,"MEAN_MOTION_DOT":1.94e-6,"MEAN_MOTION_DDOT":0},{"OBJECT_NAME":"SECOR 13 (EGRS 13)","OBJECT_ID":"1969-037B","EPOCH":"2026-03-02T15:12:50.647392","MEAN_MOTION":13.42972105,"ECCENTRICITY":0.0039831,"INCLINATION":99.6667,"RA_OF_ASC_NODE":297.6589,"ARG_OF_PERICENTER":151.9908,"MEAN_ANOMALY":264.7161,"EPHEMERIS_TYPE":0,"CLASSIFICATION_TYPE":"U","NORAD_CAT_ID":3891,"ELEMENT_SET_NO":999,"REV_AT_EPOCH":78745,"BSTAR":7.3863e-5,"MEAN_MOTION_DOT":0,"MEAN_MOTION_DDOT":0},{"OBJECT_NAME":"ATS 5","OBJECT_ID":"1969-069A","EPOCH":"2026-03-02T17:34:38.647200","MEAN_MOTION":0.99486965,"ECCENTRICITY":0.0006224,"INCLINATION":0.2916,"RA_OF_ASC_NODE":214.602,"ARG_OF_PERICENTER":66.7611,"MEAN_ANOMALY":223.0466,"EPHEMERIS_TYPE":0,"CLASSIFICATION_TYPE":"U","NORAD_CAT_ID":4068,"ELEMENT_SET_NO":999,"REV_AT_EPOCH":4526,"BSTAR":0,"MEAN_MOTION_DOT":-6.0e-8,"MEAN_MOTION_DDOT":0},{"OBJECT_NAME":"OPS 7613 (P/L 4)","OBJECT_ID":"1969-082E","EPOCH":"2026-03-02T18:22:23.189952","MEAN_MOTION":13.95977705,"ECCENTRICITY":0.0023306,"INCLINATION":70.0168,"RA_OF_ASC_NODE":331.2329,"ARG_OF_PERICENTER":268.7563,"MEAN_ANOMALY":160.9011,"EPHEMERIS_TYPE":0,"CLASSIFICATION_TYPE":"U","NORAD_CAT_ID":4237,"ELEMENT_SET_NO":999,"REV_AT_EPOCH":87145,"BSTAR":8.1575e-5,"MEAN_MOTION_DOT":5.9e-7,"MEAN_MOTION_DDOT":0},{"OBJECT_NAME":"OPS 7613 (P/L 1)","OBJECT_ID":"1969-082B","EPOCH":"2026-03-02T18:56:44.053728","MEAN_MOTION":13.99165102,"ECCENTRICITY":0.0020974,"INCLINATION":70.0094,"RA_OF_ASC_NODE":193.5771,"ARG_OF_PERICENTER":211.161,"MEAN_ANOMALY":148.8255,"EPHEMERIS_TYPE":0,"CLASSIFICATION_TYPE":"U","NORAD_CAT_ID":4256,"ELEMENT_SET_NO":999,"REV_AT_EPOCH":87558,"BSTAR":0.00015078,"MEAN_MOTION_DOT":1.66e-6,"MEAN_MOTION_DDOT":0},{"OBJECT_NAME":"SHINSEI (MS-F2)","OBJECT_ID":"1971-080A","EPOCH":"2026-03-02T12:22:34.326048","MEAN_MOTION":12.74248373,"ECCENTRICITY":0.06397788,"INCLINATION":32.0512,"RA_OF_ASC_NODE":204.6974,"ARG_OF_PERICENTER":53.7315,"MEAN_ANOMALY":312.0683,"EPHEMERIS_TYPE":0,"CLASSIFICATION_TYPE":"U","NORAD_CAT_ID":5485,"ELEMENT_SET_NO":999,"REV_AT_EPOCH":53564,"BSTAR":-3.7589026e-5,"MEAN_MOTION_DOT":-6.0e-8,"MEAN_MOTION_DDOT":0},{"OBJECT_NAME":"PROSPERO (BLACK ARROW)","OBJECT_ID":"1971-093A","EPOCH":"2026-03-02T15:21:05.048928","MEAN_MOTION":14.01375819,"ECCENTRICITY":0.050217,"INCLINATION":82.0398,"RA_OF_ASC_NODE":24.3255,"ARG_OF_PERICENTER":172.4734,"MEAN_ANOMALY":188.4358,"EPHEMERIS_TYPE":0,"CLASSIFICATION_TYPE":"U","NORAD_CAT_ID":5580,"ELEMENT_SET_NO":999,"REV_AT_EPOCH":73360,"BSTAR":0.00012456,"MEAN_MOTION_DOT":6.02e-6,"MEAN_MOTION_DDOT":0},{"OBJECT_NAME":"OPS 7898 (P/L 2)","OBJECT_ID":"1971-110C","EPOCH":"2026-03-02T19:07:46.147296","MEAN_MOTION":13.7474894,"ECCENTRICITY":0.0010179,"INCLINATION":69.988,"RA_OF_ASC_NODE":222.4752,"ARG_OF_PERICENTER":294.006,"MEAN_ANOMALY":65.9968,"EPHEMERIS_TYPE":0,"CLASSIFICATION_TYPE":"U","NORAD_CAT_ID":5680,"ELEMENT_SET_NO":999,"REV_AT_EPOCH":33359,"BSTAR":5.2774e-5,"MEAN_MOTION_DOT":0,"MEAN_MOTION_DDOT":0}]
